CCSDS_OMM_VERS = 2.0
CREATION_DATE  = 
ORIGINATOR     = 

OBJECT_NAME    = YOTSUBA-KULOVER
OBJECT_ID      = 1998-067XN
CENTER_NAME    = EARTH
REF_FRAME      = TEME
TIME_SYSTEM    = UTC
MEAN_ELEMENT_THEORY = SGP/SGP4

EPOCH          = 2026-03-10T03:33:28.454400
MEAN_MOTION    = 15.80743996
ECCENTRICITY   = .0005439
INCLINATION    = 51.6218
RA_OF_ASC_NODE = 54.9144
ARG_OF_PERICENTER = 70.0426
MEAN_ANOMALY   = 290.1161

EPHEMERIS_TYPE = 0
CLASSIFICATION_TYPE = U
NORAD_CAT_ID   = 65941
ELEMENT_SET_NO = 999
REV_AT_EPOCH   = 2357
BSTAR          = .12778E-2
MEAN_MOTION_DOT = .258279E-2
MEAN_MOTION_DDOT = 0

CCSDS_OMM_VERS = 2.0
CREATION_DATE  = 
ORIGINATOR     = 

OBJECT_NAME    = E-KAGAKU-1
OBJECT_ID      = 1998-067XQ
CENTER_NAME    = EARTH
REF_FRAME      = TEME
TIME_SYSTEM    = UTC
MEAN_ELEMENT_THEORY = SGP/SGP4

EPOCH          = 2026-03-10T05:11:05.565696
MEAN_MOTION    = 15.80419644
ECCENTRICITY   = .0005848
INCLINATION    = 51.6235
RA_OF_ASC_NODE = 54.6346
ARG_OF_PERICENTER = 77.5025
MEAN_ANOMALY   = 282.6631

EPHEMERIS_TYPE = 0
CLASSIFICATION_TYPE = U
NORAD_CAT_ID   = 65943
ELEMENT_SET_NO = 999
REV_AT_EPOCH   = 2358
BSTAR          = .12874E-2
MEAN_MOTION_DOT = .25635E-2
MEAN_MOTION_DDOT = 0

CCSDS_OMM_VERS = 2.0
CREATION_DATE  = 
ORIGINATOR     = 

OBJECT_NAME    = HRC MONOBLOCK CAMERA
OBJECT_ID      = 1998-067XR
CENTER_NAME    = EARTH
REF_FRAME      = TEME
TIME_SYSTEM    = UTC
MEAN_ELEMENT_THEORY = SGP/SGP4

EPOCH          = 2026-03-10T03:33:19.033344
MEAN_MOTION    = 15.62255862
ECCENTRICITY   = .0003668
INCLINATION    = 51.6279
RA_OF_ASC_NODE = 63.2192
ARG_OF_PERICENTER = 93.4712
MEAN_ANOMALY   = 266.6702

EPHEMERIS_TYPE = 0
CLASSIFICATION_TYPE = U
NORAD_CAT_ID   = 66052
ELEMENT_SET_NO = 999
REV_AT_EPOCH   = 2246
BSTAR          = .71499E-3
MEAN_MOTION_DOT = .64287E-3
MEAN_MOTION_DDOT = 0

CCSDS_OMM_VERS = 2.0
CREATION_DATE  = 
ORIGINATOR     = 

OBJECT_NAME    = HTV-X1
OBJECT_ID      = 2025-241A
CENTER_NAME    = EARTH
REF_FRAME      = TEME
TIME_SYSTEM    = UTC
MEAN_ELEMENT_THEORY = SGP/SGP4

EPOCH          = 2026-03-09T16:57:57.785184
MEAN_MOTION    = 15.48547200
ECCENTRICITY   = .00080196
INCLINATION    = 51.6323
RA_OF_ASC_NODE = 72.2710
ARG_OF_PERICENTER = 174.6781
MEAN_ANOMALY   = 185.4294

EPHEMERIS_TYPE = 0
CLASSIFICATION_TYPE = U
NORAD_CAT_ID   = 66174
ELEMENT_SET_NO = 999
REV_AT_EPOCH   = 55447
BSTAR          = .1550955E-3
MEAN_MOTION_DOT = .7976E-4
MEAN_MOTION_DDOT = 0

CCSDS_OMM_VERS = 2.0
CREATION_DATE  = 
ORIGINATOR     = 

OBJECT_NAME    = SZ-21 MODULE
OBJECT_ID      = 2025-246C
CENTER_NAME    = EARTH
REF_FRAME      = TEME
TIME_SYSTEM    = UTC
MEAN_ELEMENT_THEORY = SGP/SGP4

EPOCH          = 2026-03-08T17:40:24.022560
MEAN_MOTION    = 15.68463397
ECCENTRICITY   = .00013651
INCLINATION    = 41.4736
RA_OF_ASC_NODE = 209.2286
ARG_OF_PERICENTER = 296.9264
MEAN_ANOMALY   = 63.1439

EPHEMERIS_TYPE = 0
CLASSIFICATION_TYPE = U
NORAD_CAT_ID   = 66515
ELEMENT_SET_NO = 999
REV_AT_EPOCH   = 1792
BSTAR          = .4111263E-3
MEAN_MOTION_DOT = .47754E-3
MEAN_MOTION_DDOT = 0

CCSDS_OMM_VERS = 2.0
CREATION_DATE  = 
ORIGINATOR     = 

OBJECT_NAME    = SHENZHOU-22
OBJECT_ID      = 2025-272A
CENTER_NAME    = EARTH
REF_FRAME      = TEME
TIME_SYSTEM    = UTC
MEAN_ELEMENT_THEORY = SGP/SGP4

EPOCH          = 2026-03-10T00:51:10.306080
MEAN_MOTION    = 15.60677472
ECCENTRICITY   = .0006997
INCLINATION    = 41.4664
RA_OF_ASC_NODE = 206.0569
ARG_OF_PERICENTER = 274.9746
MEAN_ANOMALY   = 85.0294

EPHEMERIS_TYPE = 0
CLASSIFICATION_TYPE = U
NORAD_CAT_ID   = 66645
ELEMENT_SET_NO = 999
REV_AT_EPOCH   = 26933
BSTAR          = .31825E-3
MEAN_MOTION_DOT = .26947E-3
MEAN_MOTION_DDOT = 0

CCSDS_OMM_VERS = 2.0
CREATION_DATE  = 
ORIGINATOR     = 

OBJECT_NAME    = SOYUZ-MS 28
OBJECT_ID      = 2025-275A
CENTER_NAME    = EARTH
REF_FRAME      = TEME
TIME_SYSTEM    = UTC
MEAN_ELEMENT_THEORY = SGP/SGP4

EPOCH          = 2026-03-10T03:48:27.800640
MEAN_MOTION    = 15.48557200
ECCENTRICITY   = .0007972
INCLINATION    = 51.6324
RA_OF_ASC_NODE = 70.0375
ARG_OF_PERICENTER = 176.2903
MEAN_ANOMALY   = 183.8146

EPHEMERIS_TYPE = 0
CLASSIFICATION_TYPE = U
NORAD_CAT_ID   = 66664
ELEMENT_SET_NO = 999
REV_AT_EPOCH   = 55641
BSTAR          = .17626E-3
MEAN_MOTION_DOT = .913E-4
MEAN_MOTION_DDOT = 0

CCSDS_OMM_VERS = 2.0
CREATION_DATE  = 
ORIGINATOR     = 

OBJECT_NAME    = DUPLEX
OBJECT_ID      = 1998-067XS
CENTER_NAME    = EARTH
REF_FRAME      = TEME
TIME_SYSTEM    = UTC
MEAN_ELEMENT_THEORY = SGP/SGP4

EPOCH          = 2026-03-10T03:56:17.615328
MEAN_MOTION    = 15.56246979
ECCENTRICITY   = .0002484
INCLINATION    = 51.6294
RA_OF_ASC_NODE = 67.0775
ARG_OF_PERICENTER = 114.3644
MEAN_ANOMALY   = 245.7607

EPHEMERIS_TYPE = 0
CLASSIFICATION_TYPE = U
NORAD_CAT_ID   = 66906
ELEMENT_SET_NO = 999
REV_AT_EPOCH   = 1520
BSTAR          = .548E-3
MEAN_MOTION_DOT = .38918E-3
MEAN_MOTION_DDOT = 0

CCSDS_OMM_VERS = 2.0
CREATION_DATE  = 
ORIGINATOR     = 

OBJECT_NAME    = ISS OBJECT XT
OBJECT_ID      = 1998-067XT
CENTER_NAME    = EARTH
REF_FRAME      = TEME
TIME_SYSTEM    = UTC
MEAN_ELEMENT_THEORY = SGP/SGP4

EPOCH          = 2026-03-10T05:16:15.620736
MEAN_MOTION    = 15.69436118
ECCENTRICITY   = .0004725
INCLINATION    = 51.6253
RA_OF_ASC_NODE = 62.9330
ARG_OF_PERICENTER = 80.8513
MEAN_ANOMALY   = 279.3019

EPHEMERIS_TYPE = 0
CLASSIFICATION_TYPE = U
NORAD_CAT_ID   = 66907
ELEMENT_SET_NO = 999
REV_AT_EPOCH   = 1526
BSTAR          = .15519E-2
MEAN_MOTION_DOT = .189996E-2
MEAN_MOTION_DDOT = 0

CCSDS_OMM_VERS = 2.0
CREATION_DATE  = 
ORIGINATOR     = 

OBJECT_NAME    = ISS OBJECT XU
OBJECT_ID      = 1998-067XU
CENTER_NAME    = EARTH
REF_FRAME      = TEME
TIME_SYSTEM    = UTC
MEAN_ELEMENT_THEORY = SGP/SGP4

EPOCH          = 2026-03-10T05:13:36.304320
MEAN_MOTION    = 15.69558818
ECCENTRICITY   = .0004867
INCLINATION    = 51.6259
RA_OF_ASC_NODE = 62.9179
ARG_OF_PERICENTER = 83.0820
MEAN_ANOMALY   = 277.0731

EPHEMERIS_TYPE = 0
CLASSIFICATION_TYPE = U
NORAD_CAT_ID   = 66908
ELEMENT_SET_NO = 999
REV_AT_EPOCH   = 1526
BSTAR          = .15554E-2
MEAN_MOTION_DOT = .19144E-2
MEAN_MOTION_DDOT = 0

CCSDS_OMM_VERS = 2.0
CREATION_DATE  = 
ORIGINATOR     = 

OBJECT_NAME    = SILVERSAT
OBJECT_ID      = 1998-067XV
CENTER_NAME    = EARTH
REF_FRAME      = TEME
TIME_SYSTEM    = UTC
MEAN_ELEMENT_THEORY = SGP/SGP4

EPOCH          = 2026-03-10T05:13:58.057248
MEAN_MOTION    = 15.72479555
ECCENTRICITY   = .0005475
INCLINATION    = 51.6252
RA_OF_ASC_NODE = 62.1676
ARG_OF_PERICENTER = 80.1195
MEAN_ANOMALY   = 280.0421

EPHEMERIS_TYPE = 0
CLASSIFICATION_TYPE = U
NORAD_CAT_ID   = 66909
ELEMENT_SET_NO = 999
REV_AT_EPOCH   = 1527
BSTAR          = .17776E-2
MEAN_MOTION_DOT = .249186E-2
MEAN_MOTION_DDOT = 0

CCSDS_OMM_VERS = 2.0
CREATION_DATE  = 
ORIGINATOR     = 

OBJECT_NAME    = ISS OBJECT XW
OBJECT_ID      = 1998-067XW
CENTER_NAME    = EARTH
REF_FRAME      = TEME
TIME_SYSTEM    = UTC
MEAN_ELEMENT_THEORY = SGP/SGP4

EPOCH          = 2026-03-10T00:33:59.903136
MEAN_MOTION    = 15.68689366
ECCENTRICITY   = .0005175
INCLINATION    = 51.6250
RA_OF_ASC_NODE = 63.8675
ARG_OF_PERICENTER = 86.7803
MEAN_ANOMALY   = 273.3786

EPHEMERIS_TYPE = 0
CLASSIFICATION_TYPE = U
NORAD_CAT_ID   = 66910
ELEMENT_SET_NO = 999
REV_AT_EPOCH   = 1523
BSTAR          = .12763E-2
MEAN_MOTION_DOT = .150696E-2
MEAN_MOTION_DDOT = 0

